CCSDS_OMM_VERS = 2.0
CREATION_DATE  = 
ORIGINATOR     = 

OBJECT_NAME    = SL-16 R/B
OBJECT_ID      = 1993-016B
CENTER_NAME    = EARTH
REF_FRAME      = TEME
TIME_SYSTEM    = UTC
MEAN_ELEMENT_THEORY = SGP/SGP4

EPOCH          = 2026-01-07T15:27:15.933024
MEAN_MOTION    = 14.15296037
ECCENTRICITY   = .0008274
INCLINATION    = 71.0090
RA_OF_ASC_NODE = 343.3961
ARG_OF_PERICENTER = 45.9029
MEAN_ANOMALY   = 314.2773

EPHEMERIS_TYPE = 0
CLASSIFICATION_TYPE = U
NORAD_CAT_ID   = 22566
ELEMENT_SET_NO = 999
REV_AT_EPOCH   = 69353
BSTAR          = -.64234E-4
MEAN_MOTION_DOT = -.173E-5
MEAN_MOTION_DDOT = 0

CCSDS_OMM_VERS = 2.0
CREATION_DATE  = 
ORIGINATOR     = 

OBJECT_NAME    = COSMOS 2242
OBJECT_ID      = 1993-024A
CENTER_NAME    = EARTH
REF_FRAME      = TEME
TIME_SYSTEM    = UTC
MEAN_ELEMENT_THEORY = SGP/SGP4

EPOCH          = 2026-01-07T20:27:31.037184
MEAN_MOTION    = 14.96244743
ECCENTRICITY   = .0017246
INCLINATION    = 82.5208
RA_OF_ASC_NODE = 324.8843
ARG_OF_PERICENTER = 144.5555
MEAN_ANOMALY   = 215.6817

EPHEMERIS_TYPE = 0
CLASSIFICATION_TYPE = U
NORAD_CAT_ID   = 22626
ELEMENT_SET_NO = 999
REV_AT_EPOCH   = 77129
BSTAR          = .18343E-3
MEAN_MOTION_DOT = .2101E-4
MEAN_MOTION_DDOT = 0

CCSDS_OMM_VERS = 2.0
CREATION_DATE  = 
ORIGINATOR     = 

OBJECT_NAME    = SL-16 R/B
OBJECT_ID      = 1993-059B
CENTER_NAME    = EARTH
REF_FRAME      = TEME
TIME_SYSTEM    = UTC
MEAN_ELEMENT_THEORY = SGP/SGP4

EPOCH          = 2026-01-07T18:38:38.898240
MEAN_MOTION    = 14.17218754
ECCENTRICITY   = .0019241
INCLINATION    = 70.9902
RA_OF_ASC_NODE = 139.5815
ARG_OF_PERICENTER = 299.1396
MEAN_ANOMALY   = 60.7801

EPHEMERIS_TYPE = 0
CLASSIFICATION_TYPE = U
NORAD_CAT_ID   = 22803
ELEMENT_SET_NO = 999
REV_AT_EPOCH   = 67090
BSTAR          = -.12167E-4
MEAN_MOTION_DOT = -.73E-6
MEAN_MOTION_DDOT = 0

CCSDS_OMM_VERS = 2.0
CREATION_DATE  = 
ORIGINATOR     = 

OBJECT_NAME    = ARIANE 40 R/B
OBJECT_ID      = 1993-061H
CENTER_NAME    = EARTH
REF_FRAME      = TEME
TIME_SYSTEM    = UTC
MEAN_ELEMENT_THEORY = SGP/SGP4

EPOCH          = 2026-01-07T19:20:07.391040
MEAN_MOTION    = 14.32821834
ECCENTRICITY   = .0011788
INCLINATION    = 98.5035
RA_OF_ASC_NODE = 77.8568
ARG_OF_PERICENTER = 104.0144
MEAN_ANOMALY   = 256.2351

EPHEMERIS_TYPE = 0
CLASSIFICATION_TYPE = U
NORAD_CAT_ID   = 22830
ELEMENT_SET_NO = 999
REV_AT_EPOCH   = 68538
BSTAR          = .12719E-3
MEAN_MOTION_DOT = .304E-5
MEAN_MOTION_DDOT = 0

CCSDS_OMM_VERS = 2.0
CREATION_DATE  = 
ORIGINATOR     = 

OBJECT_NAME    = COSMOS 2278
OBJECT_ID      = 1994-023A
CENTER_NAME    = EARTH
REF_FRAME      = TEME
TIME_SYSTEM    = UTC
MEAN_ELEMENT_THEORY = SGP/SGP4

EPOCH          = 2026-01-07T20:17:41.674272
MEAN_MOTION    = 14.14359254
ECCENTRICITY   = .0007145
INCLINATION    = 71.0550
RA_OF_ASC_NODE = 302.3925
ARG_OF_PERICENTER = 131.4848
MEAN_ANOMALY   = 228.6889

EPHEMERIS_TYPE = 0
CLASSIFICATION_TYPE = U
NORAD_CAT_ID   = 23087
ELEMENT_SET_NO = 999
REV_AT_EPOCH   = 63620
BSTAR          = .25007E-3
MEAN_MOTION_DOT = .431E-5
MEAN_MOTION_DDOT = 0

CCSDS_OMM_VERS = 2.0
CREATION_DATE  = 
ORIGINATOR     = 

OBJECT_NAME    = SL-16 R/B
OBJECT_ID      = 1994-023B
CENTER_NAME    = EARTH
REF_FRAME      = TEME
TIME_SYSTEM    = UTC
MEAN_ELEMENT_THEORY = SGP/SGP4

EPOCH          = 2026-01-07T20:22:35.642496
MEAN_MOTION    = 14.15001433
ECCENTRICITY   = .0002786
INCLINATION    = 70.9983
RA_OF_ASC_NODE = 198.6560
ARG_OF_PERICENTER = 350.0919
MEAN_ANOMALY   = 10.0148

EPHEMERIS_TYPE = 0
CLASSIFICATION_TYPE = U
NORAD_CAT_ID   = 23088
ELEMENT_SET_NO = 999
REV_AT_EPOCH   = 63748
BSTAR          = .18554E-3
MEAN_MOTION_DOT = .312E-5
MEAN_MOTION_DDOT = 0

CCSDS_OMM_VERS = 2.0
CREATION_DATE  = 
ORIGINATOR     = 

OBJECT_NAME    = SL-16 R/B
OBJECT_ID      = 1994-074B
CENTER_NAME    = EARTH
REF_FRAME      = TEME
TIME_SYSTEM    = UTC
MEAN_ELEMENT_THEORY = SGP/SGP4

EPOCH          = 2026-01-07T20:56:50.288064
MEAN_MOTION    = 14.79325965
ECCENTRICITY   = .0007891
INCLINATION    = 97.7175
RA_OF_ASC_NODE = 41.1353
ARG_OF_PERICENTER = 65.0424
MEAN_ANOMALY   = 108.0505

EPHEMERIS_TYPE = 0
CLASSIFICATION_TYPE = U
NORAD_CAT_ID   = 23343
ELEMENT_SET_NO = 999
REV_AT_EPOCH   = 67825
BSTAR          = .82113E-4
MEAN_MOTION_DOT = .562E-5
MEAN_MOTION_DDOT = 0

CCSDS_OMM_VERS = 2.0
CREATION_DATE  = 
ORIGINATOR     = 

OBJECT_NAME    = SL-16 R/B
OBJECT_ID      = 1994-077B
CENTER_NAME    = EARTH
REF_FRAME      = TEME
TIME_SYSTEM    = UTC
MEAN_ELEMENT_THEORY = SGP/SGP4

EPOCH          = 2026-01-07T17:06:46.687104
MEAN_MOTION    = 14.15550868
ECCENTRICITY   = .0004899
INCLINATION    = 70.9828
RA_OF_ASC_NODE = 120.7737
ARG_OF_PERICENTER = 263.0986
MEAN_ANOMALY   = 96.9580

EPHEMERIS_TYPE = 0
CLASSIFICATION_TYPE = U
NORAD_CAT_ID   = 23405
ELEMENT_SET_NO = 999
REV_AT_EPOCH   = 60760
BSTAR          = .99909E-4
MEAN_MOTION_DOT = .148E-5
MEAN_MOTION_DDOT = 0

CCSDS_OMM_VERS = 2.0
CREATION_DATE  = 
ORIGINATOR     = 

OBJECT_NAME    = ARIANE 40+ R/B
OBJECT_ID      = 1995-021B
CENTER_NAME    = EARTH
REF_FRAME      = TEME
TIME_SYSTEM    = UTC
MEAN_ELEMENT_THEORY = SGP/SGP4

EPOCH          = 2026-01-07T17:44:00.190176
MEAN_MOTION    = 14.39719610
ECCENTRICITY   = .0006103
INCLINATION    = 98.4613
RA_OF_ASC_NODE = 80.0100
ARG_OF_PERICENTER = 332.3769
MEAN_ANOMALY   = 139.3601

EPHEMERIS_TYPE = 0
CLASSIFICATION_TYPE = U
NORAD_CAT_ID   = 23561
ELEMENT_SET_NO = 999
REV_AT_EPOCH   = 61047
BSTAR          = .13125E-3
MEAN_MOTION_DOT = .367E-5
MEAN_MOTION_DDOT = 0

CCSDS_OMM_VERS = 2.0
CREATION_DATE  = 
ORIGINATOR     = 

OBJECT_NAME    = SL-16 R/B
OBJECT_ID      = 1995-058B
CENTER_NAME    = EARTH
REF_FRAME      = TEME
TIME_SYSTEM    = UTC
MEAN_ELEMENT_THEORY = SGP/SGP4

EPOCH          = 2026-01-07T20:36:02.416320
MEAN_MOTION    = 14.15487525
ECCENTRICITY   = .001397
INCLINATION    = 71.0229
RA_OF_ASC_NODE = 307.9682
ARG_OF_PERICENTER = 220.1069
MEAN_ANOMALY   = 139.9024

EPHEMERIS_TYPE = 0
CLASSIFICATION_TYPE = U
NORAD_CAT_ID   = 23705
ELEMENT_SET_NO = 999
REV_AT_EPOCH   = 55924
BSTAR          = .18455E-3
MEAN_MOTION_DOT = .313E-5
MEAN_MOTION_DDOT = 0

CCSDS_OMM_VERS = 2.0
CREATION_DATE  = 
ORIGINATOR     = 

OBJECT_NAME    = SL-16 R/B
OBJECT_ID      = 1996-051B
CENTER_NAME    = EARTH
REF_FRAME      = TEME
TIME_SYSTEM    = UTC
MEAN_ELEMENT_THEORY = SGP/SGP4

EPOCH          = 2026-01-07T20:01:35.540832
MEAN_MOTION    = 14.12400009
ECCENTRICITY   = .0019255
INCLINATION    = 70.7600
RA_OF_ASC_NODE = 304.0490
ARG_OF_PERICENTER = 229.3123
MEAN_ANOMALY   = 130.6324

EPHEMERIS_TYPE = 0
CLASSIFICATION_TYPE = U
NORAD_CAT_ID   = 24298
ELEMENT_SET_NO = 999
REV_AT_EPOCH   = 51305
BSTAR          = .48064E-4
MEAN_MOTION_DOT = .39E-6
MEAN_MOTION_DDOT = 0

CCSDS_OMM_VERS = 2.0
CREATION_DATE  = 
ORIGINATOR     = 

OBJECT_NAME    = ORBVIEW 2 (SEASTAR)
OBJECT_ID      = 1997-037A
CENTER_NAME    = EARTH
REF_FRAME      = TEME
TIME_SYSTEM    = UTC
MEAN_ELEMENT_THEORY = SGP/SGP4

EPOCH          = 2026-01-07T16:57:01.980288
MEAN_MOTION    = 14.35440544
ECCENTRICITY   = .00015
INCLINATION    = 98.8473
RA_OF_ASC_NODE = 170.4375
ARG_OF_PERICENTER = 220.5963
MEAN_ANOMALY   = 139.5110

EPHEMERIS_TYPE = 0
CLASSIFICATION_TYPE = U
NORAD_CAT_ID   = 24883
ELEMENT_SET_NO = 999
REV_AT_EPOCH   = 49972
BSTAR          = .13953E-3
MEAN_MOTION_DOT = .354E-5
MEAN_MOTION_DDOT = 0

