SL-16 R/B               
1 22566U 93016B   26007.64393441 -.00000173  00000+0 -64234-4 0  9994
2 22566  71.0090 343.3961 0008274  45.9029 314.2773 14.15296037693530
COSMOS 2242             
1 22626U 93024A   26007.85244256  .00002101  00000+0  18343-3 0  9992
2 22626  82.5208 324.8843 0017246 144.5555 215.6817 14.96244743771296
SL-16 R/B               
1 22803U 93059B   26007.77683910 -.00000073  00000+0 -12167-4 0  9999
2 22803  70.9902 139.5815 0019241 299.1396  60.7801 14.17218754670906
ARIANE 40 R/B           
1 22830U 93061H   26007.80564110  .00000304  00000+0  12719-3 0  9993
2 22830  98.5035  77.8568 0011788 104.0144 256.2351 14.32821834685387
COSMOS 2278             
1 23087U 94023A   26007.84562123  .00000431  00000+0  25007-3 0  9998
2 23087  71.0550 302.3925 0007145 131.4848 228.6889 14.14359254636208
SL-16 R/B               
1 23088U 94023B   26007.84902364  .00000312  00000+0  18554-3 0  9991
2 23088  70.9983 198.6560 0002786 350.0919  10.0148 14.15001433637488
SL-16 R/B               
1 23343U 94074B   26007.87280426  .00000562  00000+0  82113-4 0  9992
2 23343  97.7175  41.1353 0007891  65.0424 108.0505 14.79325965678254
SL-16 R/B               
1 23405U 94077B   26007.71304036  .00000148  00000+0  99909-4 0  9992
2 23405  70.9828 120.7737 0004899 263.0986  96.9580 14.15550868607600
ARIANE 40+ R/B          
1 23561U 95021B   26007.73889109  .00000367  00000+0  13125-3 0  9994
2 23561  98.4613  80.0100 0006103 332.3769 139.3601 14.39719610610474
SL-16 R/B               
1 23705U 95058B   26007.85836130  .00000313  00000+0  18455-3 0  9995
2 23705  71.0229 307.9682 0013970 220.1069 139.9024 14.15487525559240
SL-16 R/B               
1 24298U 96051B   26007.83443913  .00000039  00000+0  48064-4 0  9993
2 24298  70.7600 304.0490 0019255 229.3123 130.6324 14.12400009513055
ORBVIEW 2 (SEASTAR)     
1 24883U 97037A   26007.70627292  .00000354  00000+0  13953-3 0  9996
2 24883  98.8473 170.4375 0001500 220.5963 139.5110 14.35440544499721
